#dP2018  7 16  0  0  0.00000000      96 __u+U ITR00 FIT  IAC
## 2010  86400.00000000   900.00000000 58315 0.0000000000000
+   85   C01C02C03C04C05C06C07C08C09C10C11C12C13C14E01E02E03
+        E04E05E07E08E09E11E12E14E18E19E24E26E30G01G02G03G05
+        G06G07G08G09G10G11G12G13G14G15G16G17G18G19G20G21G22
+        G23G24G25G26G27G28G29G30G31G32J01R01R02R03R04R05R07
+        R08R09R10R11R13R14R15R16R17R18R19R20R21R22R23R24R26
++        12 12 12 12 12  8  9  8  8  8  8  8  8  8  6  6  6
++         6  6  6  6  6  6  6  7  7  0  6  6  6  3  3  3  3
++         3  3  3  3  3  3  3  3  3  3  3  3  3  3  3  3  3
++         3  3  3  3  3  3  3  3  3  3  9  5  5  5  5  6  5
++         5  5  5  5  5  5  6  5  5  5  5  5  5  5  5  6 12
%c M  cc GPS ccc cccc cccc cccc cccc ccccc ccccc ccccc ccccc
%c cc cc ccc ccc cccc cccc cccc cccc ccccc ccccc ccccc ccccc
%f  0.0000000  0.000000000  0.00000000000  0.000000000000000
%f  0.0000000  0.000000000  0.00000000000  0.000000000000000
%i    0    0    0    0      0      0      0      0         0
%i    0    0    0    0      0      0      0      0         0
/* INFORMATION & ANALYSIS CENTER (IAC) OF MCC   (RAPID DATA)
/* S/V CLOCKS ARE ALIGNED TO GPS & GLONASS TIME RESPECTIVELY
/* USING THE BROADCAST EPHEMERIS                            
/* PCV:IGS14_2000 OL/AL:FES2004  NONE     YN ORB:CoN CLK:CoN
*  2018 07 16  8 15  0.00000000
PC01 -32338.810136  27036.166464   -243.527267    345.910417
PC02   4387.333445  41912.976727   1246.207716    -34.317443
PC03 -14862.522630  39480.256277    543.249376   -242.022683
PC04 -39608.446673  14442.120600    210.543809   -265.595517
PC05  21869.445724  36041.695523    882.528565    298.379111
PC06 -22929.225326  34553.882767  -8246.778302    102.899009
PC07  -9165.452649  31516.922771 -26088.946247     65.371968
PC08 -15667.372682  18597.928085  34467.330362    440.364566
PC09 -12638.332412  34418.611434 -20906.440854     54.401023
PC10   3479.352851  39106.469269 -14701.500184   -390.074374
PC11 -26985.204539   6511.561554  -2379.067164   -593.509172
PC12 -19560.666872  -6821.344110 -18602.856137    517.777997
PC13  -2094.832002  23512.140821  34951.770661   -180.373196
PC14 -16788.698245   5897.917569  21570.510199    243.730051
PE01  14053.632479  26006.330595   1374.532492   -391.751568
PE02 -14077.481588 -26003.063297  -1407.919577     19.711226
PE03  -5538.942111 -19472.155026  21608.866990    -54.967899
PE04  18742.413284   1186.910169 -22867.607857    -76.264686
PE05  10965.317768 -26406.369080   7670.263558    227.967675
PE07 -21021.268571  17859.719046  10742.279396     -2.924675
PE08 -18640.358947   -957.354349  22982.846852   6543.157523
PE09  20796.250647 -18101.265671 -10777.734230   6733.631848
PE11  24903.610257  -8024.999042 -13831.489520   2489.361441
PE12  28741.625675   4876.030552   5069.326496   4612.500144
PE14  22992.013033 -12556.910954    399.446883   6550.587284
PE18 -27972.859853   3453.162243 -12427.515266   6055.638944
PE19      0.000000      0.000000      0.000000 999999.999999
PE24  13679.516710  -8871.348915  24694.449438   6598.387021
PE26  -6878.240295  15888.426719  24005.327823   5704.223501
PE30 -19624.366685 -12147.613910 -18544.274354   5674.381756
PG01 -22476.528263 -14118.798660  -3286.311818    -66.276645
PG02   5400.789510  17715.458200  19686.199127     56.435825
PG03 -13149.316434 -14804.971310  17710.922738    106.445269
PG05   2597.804269  26304.309291   -877.091646     -4.540220
PG06 -10794.312550  11082.947141  21621.318845    386.652673
PG07 -23942.965259  -3871.171216 -11122.594819    158.100431
PG08  -8214.281810 -12563.736405 -21865.869211   -108.340729
PG09 -23038.791196   4914.259397  12249.264885    513.607201
PG10  11458.803347 -16045.943112 -17673.714515    188.755170
PG11 -21084.900065 -10741.518581 -12449.410154   -729.823147
PG12   9612.731383  19764.136814  14851.683276    320.650637
PG13  -1284.123868  16589.670555 -20806.524816    -92.364457
PG14  14752.058312 -18158.921068  12703.439810    -97.628167
PG15  12297.342806  10616.378812 -21262.598241   -350.658569
PG16    665.079714 -26322.448555   -174.830678     17.571393
PG17 -21120.514741  15522.949399   4233.826788    -77.719661
PG18 -16985.752408 -17069.255833 -11866.804892     34.213502
PG19 -16348.765989  17295.053932  11657.172727   -419.998413
PG20  14983.416017  -6231.549916 -21135.500922    512.476287
PG21  22545.302708   -380.337948 -13212.398525   -366.823894
PG22 -11199.328371 -21258.886107  11585.621193   -459.287153
PG23 -17903.910922  -4958.997636  19427.987277   -214.411641
PG24  20835.895947  15186.410543  -7099.000996    -52.624522
PG25  14767.051974   5062.181190  21338.034212   -616.854942
PG26   5572.117815 -23764.702356  10296.278696    -82.282958
PG27   4159.156481 -18057.432481 -19009.965934    360.670417
PG28 -12804.204581  13082.061100 -18646.503398    731.549316
PG29  22509.578128  -2120.319913  13906.238920    413.910959
PG30 -18536.606113   4783.871778 -18466.948832     49.964978
PG31   9492.406110 -12051.203345  21741.873369    107.402801
PG32  20474.317804 -16486.236668   3493.354972   -474.078826
PJ01 -27196.599534  27897.703216  21151.635980   -178.400507
PR01 -11554.032099  22255.577361   4636.380249     29.138299
PR02  -1434.795647  20874.513747 -14581.766548    319.922900
PR03   9033.031370   6647.464493 -22868.066745    137.806136
PR04  14153.301553 -11933.912076 -17519.398309    268.702849
PR05  10606.903668 -23097.670658  -2235.932971    -40.813784
PR07  -9303.246738  -6137.855057  22982.104902    -42.529411
PR08 -14167.768970  11265.327313  18031.060812     22.261414
PR09 -11431.985775 -21612.787251   7413.381471     18.335538
PR10 -17295.246851 -16178.435885  -9613.052606     27.983869
PR11 -13423.946039   -739.258054 -21673.845664    -34.746094
PR13  11743.286699  21319.024948  -7625.943053    -12.564577
PR14  17414.734874  16065.381525   9434.677795     29.101509
PR15  15034.027545   4891.092370  20056.679478    -13.228732
PR16   2012.083466 -13982.787668  21192.428547     97.066182
PR17  20633.383058   4330.840779  14386.545647    148.289003
PR18  25125.980459  -3749.949335  -1906.497078    203.124961
PR19  15980.610582  -9451.551070 -17497.187439    -56.530742
PR20  -4061.585497 -10084.942356 -23077.672052   -345.314010
PR21 -20828.979894  -4111.728572 -14126.533814      6.942073
PR22 -24827.166074   4612.181847   4051.988947    -55.859878
PR23 -12080.424069  10439.085828  19880.730414    166.042547
PR24   5321.500881   9855.244128  22885.098956   -168.940608
PR26  -3082.958625 -10231.095674 -23153.576811     34.295923
EOF
